*******************************************************************************
Ephemeris / WWW_USER Mon Mar 24 06:41:35 2025 Pasadena, USA      / Horizons    
*******************************************************************************
Target body name: (2018 RY7)                      {source: JPL#20}
Center body name: Earth (399)                     {source: DE441}
Center-site name: Gemini South Obs., Cerro Pachon
*******************************************************************************
Start time      : A.D. 2018-Sep-03 22:37:00.0000 UT      
Stop  time      : A.D. 2018-Sep-04 10:46:00.0000 UT      
Step-size       : 1 minutes
*******************************************************************************
Target pole/equ : undefined
Target radii    : undefined                                                    
Center geodetic : 289.2634, -30.2406227, 2.71233  {E-lon(deg),Lat(deg),Alt(km)}
Center cylindric: 289.2634,5517.21435,-3194.81213 {E-lon(deg),Dxy(km),Dz(km)}
Center pole/equ : ITRF93                          {East-longitude positive}
Center radii    : 6378.137, 6378.137, 6356.752 km {Equator_a, b, pole_c}       
Target primary  : Sun
Vis. interferer : MOON (R_eq= 1737.400) km        {source: DE441}
Rel. light bend : Sun                             {source: DE441}
Rel. lght bnd GM: 1.3271E+11 km^3/s^2                                          
Small-body perts: Yes                             {source: SB441-N16}
Atmos refraction: NO (AIRLESS)
RA format       : HMS
Time format     : CAL 
Calendar mode   : Mixed Julian/Gregorian
RTS-only print  : NO       
EOP file        : eop.250321.p250617                                           
EOP coverage    : DATA-BASED 1962-JAN-20 TO 2025-MAR-21. PREDICTS-> 2025-JUN-16
Units conversion: 1 au= 149597870.700 km, c= 299792.458 km/s, 1 day= 86400.0 s 
Table cut-offs 1: Elevation (-90.0deg=NO ),Airmass (>38.000=NO), Daylight (YES)
Table cut-offs 2: Solar elongation (  0.0,180.0=NO ),Local Hour Angle( 0.0=NO )
Table cut-offs 3: RA/DEC angular rate (     0.0=NO )                           
*******************************************************************************
Initial IAU76/J2000 heliocentric ecliptic osculating elements (au, days, deg.):
  EPOCH=  2458422.5 ! 2018-Oct-31.00 (TDB)         Residual RMS= .22459        
   EC= .1470549687381346   QR= .8667733479166969   TP= 2458516.8896767548      
   OM= 2.838668085760325   W=  136.9006026425241   IN= 13.35135890147074       
  Equivalent ICRF heliocentric cartesian coordinates (au, au/d):
   X= 8.791791513870114E-01  Y= 4.508422091141234E-01  Z= 3.244113040133835E-01
  VX=-1.085418916943652E-02 VY= 1.006005810562689E-02 VZ= 7.673980932675997E-03
Asteroid physical parameters (km, seconds, rotational period in hours):        
   GM= n.a.                RAD= n.a.               ROTPER= n.a.                
   H= 24.4                 G= .150                 B-V= n.a.                   
                           ALBEDO= n.a.            STYP= n.a.                  
*******************************************************************************
 Date__(UT)__HR:MN     R.A._________(ICRF)_________DEC
******************************************************
$$SOE
 2018-Sep-04 00:40     01 49 59.093794 -15 37 22.60319
 2018-Sep-04 00:41     01 49 59.018706 -15 37 21.64532
 2018-Sep-04 00:42     01 49 58.943559 -15 37 20.68747
 2018-Sep-04 00:43     01 49 58.868353 -15 37 19.72964
 2018-Sep-04 00:44     01 49 58.793089 -15 37 18.77182
 2018-Sep-04 00:45     01 49 58.717767 -15 37 17.81403
 2018-Sep-04 00:46     01 49 58.642386 -15 37 16.85624
 2018-Sep-04 00:47     01 49 58.566946 -15 37 15.89848
 2018-Sep-04 00:48     01 49 58.491447 -15 37 14.94072
 2018-Sep-04 00:49     01 49 58.415890 -15 37 13.98298
 2018-Sep-04 00:50     01 49 58.340274 -15 37 13.02525
 2018-Sep-04 00:51     01 49 58.264599 -15 37 12.06754
 2018-Sep-04 00:52     01 49 58.188866 -15 37 11.10983
 2018-Sep-04 00:53     01 49 58.113073 -15 37 10.15213
 2018-Sep-04 00:54  r  01 49 58.037221 -15 37 09.19444
 2018-Sep-04 00:55     01 49 57.961310 -15 37 08.23676
 2018-Sep-04 00:56     01 49 57.885340 -15 37 07.27908
 2018-Sep-04 00:57     01 49 57.809311 -15 37 06.32141
 2018-Sep-04 00:58     01 49 57.733222 -15 37 05.36374
 2018-Sep-04 00:59     01 49 57.657074 -15 37 04.40608
 2018-Sep-04 01:00     01 49 57.580867 -15 37 03.44842
 2018-Sep-04 01:01     01 49 57.504601 -15 37 02.49076
 2018-Sep-04 01:02     01 49 57.428275 -15 37 01.53310
 2018-Sep-04 01:03     01 49 57.351889 -15 37 00.57545
 2018-Sep-04 01:04     01 49 57.275444 -15 36 59.61779
 2018-Sep-04 01:05     01 49 57.198939 -15 36 58.66013
 2018-Sep-04 01:06     01 49 57.122375 -15 36 57.70246
 2018-Sep-04 01:07     01 49 57.045751 -15 36 56.74480
 2018-Sep-04 01:08     01 49 56.969068 -15 36 55.78713
 2018-Sep-04 01:09     01 49 56.892324 -15 36 54.82945
 2018-Sep-04 01:10     01 49 56.815521 -15 36 53.87176
 2018-Sep-04 01:11     01 49 56.738659 -15 36 52.91407
 2018-Sep-04 01:12     01 49 56.661736 -15 36 51.95637
 2018-Sep-04 01:13     01 49 56.584753 -15 36 50.99866
 2018-Sep-04 01:14     01 49 56.507711 -15 36 50.04094
 2018-Sep-04 01:15     01 49 56.430608 -15 36 49.08321
 2018-Sep-04 01:16     01 49 56.353446 -15 36 48.12547
 2018-Sep-04 01:17     01 49 56.276223 -15 36 47.16771
 2018-Sep-04 01:18     01 49 56.198941 -15 36 46.20994
 2018-Sep-04 01:19     01 49 56.121598 -15 36 45.25216
 2018-Sep-04 01:20     01 49 56.044196 -15 36 44.29436
 2018-Sep-04 01:21     01 49 55.966733 -15 36 43.33654
 2018-Sep-04 01:22     01 49 55.889210 -15 36 42.37870
 2018-Sep-04 01:23     01 49 55.811627 -15 36 41.42085
 2018-Sep-04 01:24     01 49 55.733984 -15 36 40.46297
 2018-Sep-04 01:25     01 49 55.656280 -15 36 39.50508
 2018-Sep-04 01:26     01 49 55.578516 -15 36 38.54716
 2018-Sep-04 01:27     01 49 55.500693 -15 36 37.58922
 2018-Sep-04 01:28     01 49 55.422808 -15 36 36.63126
 2018-Sep-04 01:29     01 49 55.344864 -15 36 35.67328
 2018-Sep-04 01:30     01 49 55.266859 -15 36 34.71526
 2018-Sep-04 01:31     01 49 55.188794 -15 36 33.75723
 2018-Sep-04 01:32     01 49 55.110669 -15 36 32.79916
 2018-Sep-04 01:33     01 49 55.032483 -15 36 31.84107
 2018-Sep-04 01:34     01 49 54.954237 -15 36 30.88294
 2018-Sep-04 01:35     01 49 54.875930 -15 36 29.92479
 2018-Sep-04 01:36     01 49 54.797563 -15 36 28.96661
 2018-Sep-04 01:37     01 49 54.719136 -15 36 28.00839
 2018-Sep-04 01:38     01 49 54.640648 -15 36 27.05014
 2018-Sep-04 01:39     01 49 54.562100 -15 36 26.09186
 2018-Sep-04 01:40     01 49 54.483492 -15 36 25.13354
 2018-Sep-04 01:41     01 49 54.404823 -15 36 24.17519
 2018-Sep-04 01:42     01 49 54.326094 -15 36 23.21680
 2018-Sep-04 01:43     01 49 54.247304 -15 36 22.25837
 2018-Sep-04 01:44     01 49 54.168454 -15 36 21.29991
 2018-Sep-04 01:45     01 49 54.089543 -15 36 20.34140
 2018-Sep-04 01:46     01 49 54.010572 -15 36 19.38286
 2018-Sep-04 01:47     01 49 53.931541 -15 36 18.42427
 2018-Sep-04 01:48     01 49 53.852449 -15 36 17.46564
 2018-Sep-04 01:49     01 49 53.773297 -15 36 16.50697
 2018-Sep-04 01:50     01 49 53.694084 -15 36 15.54825
 2018-Sep-04 01:51     01 49 53.614811 -15 36 14.58949
 2018-Sep-04 01:52     01 49 53.535478 -15 36 13.63068
 2018-Sep-04 01:53     01 49 53.456084 -15 36 12.67183
 2018-Sep-04 01:54     01 49 53.376630 -15 36 11.71293
 2018-Sep-04 01:55     01 49 53.297115 -15 36 10.75397
 2018-Sep-04 01:56     01 49 53.217540 -15 36 09.79497
 2018-Sep-04 01:57     01 49 53.137905 -15 36 08.83592
 2018-Sep-04 01:58     01 49 53.058209 -15 36 07.87682
 2018-Sep-04 01:59     01 49 52.978453 -15 36 06.91766
 2018-Sep-04 02:00     01 49 52.898637 -15 36 05.95845
 2018-Sep-04 02:01     01 49 52.818761 -15 36 04.99919
 2018-Sep-04 02:02     01 49 52.738824 -15 36 04.03987
 2018-Sep-04 02:03     01 49 52.658827 -15 36 03.08049
 2018-Sep-04 02:04     01 49 52.578770 -15 36 02.12106
 2018-Sep-04 02:05     01 49 52.498652 -15 36 01.16156
 2018-Sep-04 02:06     01 49 52.418475 -15 36 00.20201
 2018-Sep-04 02:07     01 49 52.338237 -15 35 59.24240
 2018-Sep-04 02:08     01 49 52.257939 -15 35 58.28273
 2018-Sep-04 02:09     01 49 52.177581 -15 35 57.32299
 2018-Sep-04 02:10     01 49 52.097163 -15 35 56.36320
 2018-Sep-04 02:11     01 49 52.016685 -15 35 55.40333
 2018-Sep-04 02:12     01 49 51.936146 -15 35 54.44341
 2018-Sep-04 02:13     01 49 51.855548 -15 35 53.48342
 2018-Sep-04 02:14     01 49 51.774890 -15 35 52.52336
 2018-Sep-04 02:15     01 49 51.694172 -15 35 51.56323
 2018-Sep-04 02:16     01 49 51.613394 -15 35 50.60303
 2018-Sep-04 02:17     01 49 51.532556 -15 35 49.64277
 2018-Sep-04 02:18     01 49 51.451658 -15 35 48.68243
 2018-Sep-04 02:19     01 49 51.370701 -15 35 47.72203
 2018-Sep-04 02:20     01 49 51.289684 -15 35 46.76155
 2018-Sep-04 02:21     01 49 51.208607 -15 35 45.80100
 2018-Sep-04 02:22     01 49 51.127470 -15 35 44.84037
 2018-Sep-04 02:23     01 49 51.046274 -15 35 43.87967
 2018-Sep-04 02:24     01 49 50.965018 -15 35 42.91889
 2018-Sep-04 02:25     01 49 50.883702 -15 35 41.95804
 2018-Sep-04 02:26     01 49 50.802327 -15 35 40.99711
 2018-Sep-04 02:27     01 49 50.720893 -15 35 40.03610
 2018-Sep-04 02:28     01 49 50.639399 -15 35 39.07500
 2018-Sep-04 02:29     01 49 50.557845 -15 35 38.11383
 2018-Sep-04 02:30     01 49 50.476233 -15 35 37.15258
 2018-Sep-04 02:31     01 49 50.394561 -15 35 36.19124
 2018-Sep-04 02:32     01 49 50.312829 -15 35 35.22983
 2018-Sep-04 02:33     01 49 50.231039 -15 35 34.26832
 2018-Sep-04 02:34     01 49 50.149190 -15 35 33.30673
 2018-Sep-04 02:35     01 49 50.067281 -15 35 32.34506
 2018-Sep-04 02:36     01 49 49.985313 -15 35 31.38330
 2018-Sep-04 02:37     01 49 49.903287 -15 35 30.42145
 2018-Sep-04 02:38     01 49 49.821201 -15 35 29.45951
 2018-Sep-04 02:39     01 49 49.739057 -15 35 28.49748
 2018-Sep-04 02:40     01 49 49.656853 -15 35 27.53536
 2018-Sep-04 02:41     01 49 49.574591 -15 35 26.57315
 2018-Sep-04 02:42     01 49 49.492271 -15 35 25.61085
